{
    "week": 296,
    "satellites": [
        {
            "Name": "BEIDOU-3 M28 (C50)",
            "Line1": "1 58654U 23207A   24343.55059819 -.00000015  00000+0  00000+0 0  9995",
            "Line2": "2 58654  55.2578  81.1277 0002328 250.1363 109.8443  1.86231868  6494",
            "SatelliteNumber": "58654",
            "Classification": "U",
            "LaunchYear": "23",
            "LaunchNumber": "207",
            "PieceOfLaunch": "A",
            "EpochYear": "24",
            "EpochDay": 343.55059819,
            "FirstDerivativeMeanMotion": -1.5e-07,
            "SecondDerivativeMeanMotion": "00000+0",
            "BSTAR": "00000+0",
            "SetNumber": "999",
            "Inclination": 55.2578,
            "RAAN": 81.1277,
            "Eccentricity": 0.0002328,
            "ArgumentOfPerigee": 250.1363,
            "MeanAnomaly": 109.8443,
            "MeanMotion": 1.86231868,
            "RevolutionNumber": "649"
        },
        {
            "Name": "BEIDOU-3 M26 (C48)",
            "Line1": "1 58655U 23207B   24343.34995885 -.00000013  00000+0  00000+0 0  9993",
            "Line2": "2 58655  55.2597  81.1202 0003714 239.5035 120.4661  1.86231348  6473",
            "SatelliteNumber": "58655",
            "Classification": "U",
            "LaunchYear": "23",
            "LaunchNumber": "207",
            "PieceOfLaunch": "B",
            "EpochYear": "24",
            "EpochDay": 343.34995885,
            "FirstDerivativeMeanMotion": -1.3e-07,
            "SecondDerivativeMeanMotion": "00000+0",
            "BSTAR": "00000+0",
            "SetNumber": "999",
            "Inclination": 55.2597,
            "RAAN": 81.1202,
            "Eccentricity": 0.0003714,
            "ArgumentOfPerigee": 239.5035,
            "MeanAnomaly": 120.4661,
            "MeanMotion": 1.86231348,
            "RevolutionNumber": "647"
        }
    ]
}